[
{"type":"header","version":"4.8.4","comment":"Export to JSON plugin for PHPMyAdmin"},
{"type":"database","name":"db_restaurant"},
{"type":"table","name":"districts","database":"db_restaurant","data":
[
{"id":"1","division_id":"3","name":"Dhaka","bn_name":"ঢাকা","lat":"23.71152530","lng":"90.41114510","website":"www.dhaka.gov.bd"},
{"id":"2","division_id":"3","name":"Faridpur","bn_name":"ফরিদপুর","lat":"23.60708220","lng":"89.84294060","website":"www.faridpur.gov.bd"},
{"id":"3","division_id":"3","name":"Gazipur","bn_name":"গাজীপুর","lat":"24.00228580","lng":"90.42642830","website":"www.gazipur.gov.bd"},
{"id":"4","division_id":"3","name":"Gopalganj","bn_name":"গোপালগঞ্জ","lat":"23.00508570","lng":"89.82660590","website":"www.gopalganj.gov.bd"},
{"id":"5","division_id":"8","name":"Jamalpur","bn_name":"জামালপুর","lat":"24.93753300","lng":"89.93777500","website":"www.jamalpur.gov.bd"},
{"id":"6","division_id":"3","name":"Kishoreganj","bn_name":"কিশোরগঞ্জ","lat":"24.44493700","lng":"90.77657500","website":"www.kishoreganj.gov.bd"},
{"id":"7","division_id":"3","name":"Madaripur","bn_name":"মাদারীপুর","lat":"23.16410200","lng":"90.18968050","website":"www.madaripur.gov.bd"},
{"id":"8","division_id":"3","name":"Manikganj","bn_name":"মানিকগঞ্জ","lat":"23.86165100","lng":"90.00032300","website":"www.manikganj.gov.bd"},
{"id":"9","division_id":"3","name":"Munshiganj","bn_name":"মুন্সিগঞ্জ","lat":"23.49809300","lng":"90.41266200","website":"www.munshiganj.gov.bd"},
{"id":"10","division_id":"8","name":"Mymensingh","bn_name":"ময়মনসিংহ","lat":"24.74714900","lng":"90.42027300","website":"www.mymensingh.gov.bd"},
{"id":"11","division_id":"3","name":"Narayanganj","bn_name":"নারায়াণগঞ্জ","lat":"23.63366000","lng":"90.49648200","website":"www.narayanganj.gov.bd"},
{"id":"12","division_id":"3","name":"Narsingdi","bn_name":"নরসিংদী","lat":"23.93223300","lng":"90.71541000","website":"www.narsingdi.gov.bd"},
{"id":"13","division_id":"8","name":"Netrokona","bn_name":"নেত্রকোণা","lat":"24.87095500","lng":"90.72788700","website":"www.netrokona.gov.bd"},
{"id":"14","division_id":"3","name":"Rajbari","bn_name":"রাজবাড়ি","lat":"23.75743050","lng":"89.64446650","website":"www.rajbari.gov.bd"},
{"id":"15","division_id":"3","name":"Shariatpur","bn_name":"শরীয়তপুর","lat":"23.21970300","lng":"90.35012600","website":"www.shariatpur.gov.bd"},
{"id":"16","division_id":"8","name":"Sherpur","bn_name":"শেরপুর","lat":"25.02049330","lng":"90.01529660","website":"www.sherpur.gov.bd"},
{"id":"17","division_id":"3","name":"Tangail","bn_name":"টাঙ্গাইল","lat":"24.25134500","lng":"89.91671000","website":"www.tangail.gov.bd"},
{"id":"18","division_id":"5","name":"Bogura","bn_name":"বগুড়া","lat":"24.84652280","lng":"89.37775500","website":"www.bogra.gov.bd"},
{"id":"19","division_id":"5","name":"Joypurhat","bn_name":"জয়পুরহাট","lat":"25.09473500","lng":"89.09449400","website":"www.joypurhat.gov.bd"},
{"id":"20","division_id":"5","name":"Naogaon","bn_name":"নওগাঁ","lat":"24.91316000","lng":"88.75309500","website":"www.naogaon.gov.bd"},
{"id":"21","division_id":"5","name":"Natore","bn_name":"নাটোর","lat":"24.42055600","lng":"89.00028200","website":"www.natore.gov.bd"},
{"id":"22","division_id":"5","name":"Nawabganj","bn_name":"নবাবগঞ্জ","lat":"24.59650340","lng":"88.27751220","website":"www.chapainawabganj.gov.bd"},
{"id":"23","division_id":"5","name":"Pabna","bn_name":"পাবনা","lat":"23.99852400","lng":"89.23364500","website":"www.pabna.gov.bd"},
{"id":"24","division_id":"5","name":"Rajshahi","bn_name":"রাজশাহী","lat":"24.36358900","lng":"88.62413500","website":"www.rajshahi.gov.bd"},
{"id":"25","division_id":"5","name":"Sirajgonj","bn_name":"সিরাজগঞ্জ","lat":"24.45339780","lng":"89.70068150","website":"www.sirajganj.gov.bd"},
{"id":"26","division_id":"6","name":"Dinajpur","bn_name":"দিনাজপুর","lat":"25.62170610","lng":"88.63545040","website":"www.dinajpur.gov.bd"},
{"id":"27","division_id":"6","name":"Gaibandha","bn_name":"গাইবান্ধা","lat":"25.32875100","lng":"89.52808800","website":"www.gaibandha.gov.bd"},
{"id":"28","division_id":"6","name":"Kurigram","bn_name":"কুড়িগ্রাম","lat":"25.80544500","lng":"89.63617400","website":"www.kurigram.gov.bd"},
{"id":"29","division_id":"6","name":"Lalmonirhat","bn_name":"লালমনিরহাট","lat":"25.99234000","lng":"89.28472500","website":"www.lalmonirhat.gov.bd"},
{"id":"30","division_id":"6","name":"Nilphamari","bn_name":"নীলফামারী","lat":"25.93179400","lng":"88.85600600","website":"www.nilphamari.gov.bd"},
{"id":"31","division_id":"6","name":"Panchagarh","bn_name":"পঞ্চগড়","lat":"26.34110000","lng":"88.55416060","website":"www.panchagarh.gov.bd"},
{"id":"32","division_id":"6","name":"Rangpur","bn_name":"রংপুর","lat":"25.75580960","lng":"89.24446200","website":"www.rangpur.gov.bd"},
{"id":"33","division_id":"6","name":"Thakurgaon","bn_name":"ঠাকুরগাঁও","lat":"26.03369450","lng":"88.46168340","website":"www.thakurgaon.gov.bd"},
{"id":"34","division_id":"1","name":"Barguna","bn_name":"বরগুনা","lat":"22.09529100","lng":"90.11207000","website":"www.barguna.gov.bd"},
{"id":"35","division_id":"1","name":"Barishal","bn_name":"বরিশাল","lat":"22.70100200","lng":"90.35345100","website":"www.barisal.gov.bd"},
{"id":"36","division_id":"1","name":"Bhola","bn_name":"ভোলা","lat":"22.68592300","lng":"90.64817900","website":"www.bhola.gov.bd"},
{"id":"37","division_id":"1","name":"Jhalokati","bn_name":"ঝালকাঠি","lat":"22.17853100","lng":"90.71010200","website":"www.jhalakathi.gov.bd"},
{"id":"38","division_id":"1","name":"Patuakhali","bn_name":"পটুয়াখালী","lat":"22.35963160","lng":"90.32987120","website":"www.patuakhali.gov.bd"},
{"id":"39","division_id":"1","name":"Pirojpur","bn_name":"পিরোজপুর","lat":"22.57907400","lng":"89.97592600","website":"www.pirojpur.gov.bd"},
{"id":"40","division_id":"2","name":"Bandarban","bn_name":"বান্দরবান","lat":"22.19532750","lng":"92.21837730","website":"www.bandarban.gov.bd"},
{"id":"41","division_id":"2","name":"Brahmanbaria","bn_name":"ব্রাহ্মণবাড়িয়া","lat":"23.95709040","lng":"91.11192860","website":"www.brahmanbaria.gov.bd"},
{"id":"42","division_id":"2","name":"Chandpur","bn_name":"চাঁদপুর","lat":"23.23325850","lng":"90.67129120","website":"www.chandpur.gov.bd"},
{"id":"43","division_id":"2","name":"Chattogram","bn_name":"চট্টগ্রাম","lat":"22.33510900","lng":"91.83407300","website":"www.chittagong.gov.bd"},
{"id":"44","division_id":"2","name":"Cumilla","bn_name":"কুমিল্লা","lat":"23.46827470","lng":"91.17881350","website":"www.comilla.gov.bd"},
{"id":"45","division_id":"2","name":"Cox's Bazar","bn_name":"কক্স বাজার","lat":"21.42722800","lng":"92.00580700","website":"www.coxsbazar.gov.bd"},
{"id":"46","division_id":"2","name":"Feni","bn_name":"ফেনী","lat":"23.02323100","lng":"91.38408440","website":"www.feni.gov.bd"},
{"id":"47","division_id":"2","name":"Khagrachari","bn_name":"খাগড়াছড়ি","lat":"23.11928500","lng":"91.98466300","website":"www.khagrachhari.gov.bd"},
{"id":"48","division_id":"2","name":"Lakshmipur","bn_name":"লক্ষ্মীপুর","lat":"22.94247700","lng":"90.84118400","website":"www.lakshmipur.gov.bd"},
{"id":"49","division_id":"2","name":"Noakhali","bn_name":"নোয়াখালী","lat":"22.86956300","lng":"91.09939800","website":"www.noakhali.gov.bd"},
{"id":"50","division_id":"2","name":"Rangamati","bn_name":"রাঙ্গামাটি","lat":"22.73241700","lng":"92.29851300","website":"www.rangamati.gov.bd"},
{"id":"51","division_id":"7","name":"Habiganj","bn_name":"হবিগঞ্জ","lat":"24.37494500","lng":"91.41553000","website":"www.habiganj.gov.bd"},
{"id":"52","division_id":"7","name":"Maulvibazar","bn_name":"মৌলভীবাজার","lat":"24.48293400","lng":"91.77741700","website":"www.moulvibazar.gov.bd"},
{"id":"53","division_id":"7","name":"Sunamganj","bn_name":"সুনামগঞ্জ","lat":"25.06580420","lng":"91.39501150","website":"www.sunamganj.gov.bd"},
{"id":"54","division_id":"7","name":"Sylhet","bn_name":"সিলেট","lat":"24.88979560","lng":"91.86978940","website":"www.sylhet.gov.bd"},
{"id":"55","division_id":"4","name":"Bagerhat","bn_name":"বাগেরহাট","lat":"22.65156800","lng":"89.78593800","website":"www.bagerhat.gov.bd"},
{"id":"56","division_id":"4","name":"Chuadanga","bn_name":"চুয়াডাঙ্গা","lat":"23.64019610","lng":"88.84184100","website":"www.chuadanga.gov.bd"},
{"id":"57","division_id":"4","name":"Jashore","bn_name":"যশোর","lat":"23.16643000","lng":"89.20811260","website":"www.jessore.gov.bd"},
{"id":"58","division_id":"4","name":"Jhenaidah","bn_name":"ঝিনাইদহ","lat":"23.54481760","lng":"89.15392130","website":"www.jhenaidah.gov.bd"},
{"id":"59","division_id":"4","name":"Khulna","bn_name":"খুলনা","lat":"22.81577400","lng":"89.56867900","website":"www.khulna.gov.bd"},
{"id":"60","division_id":"4","name":"Kushtia","bn_name":"কুষ্টিয়া","lat":"23.90125800","lng":"89.12048200","website":"www.kushtia.gov.bd"},
{"id":"61","division_id":"4","name":"Magura","bn_name":"মাগুরা","lat":"23.48733700","lng":"89.41995600","website":"www.magura.gov.bd"},
{"id":"62","division_id":"4","name":"Meherpur","bn_name":"মেহেরপুর","lat":"23.76221300","lng":"88.63182100","website":"www.meherpur.gov.bd"},
{"id":"63","division_id":"4","name":"Narail","bn_name":"নড়াইল","lat":"23.17253400","lng":"89.51267200","website":"www.narail.gov.bd"},
{"id":"64","division_id":"4","name":"Satkhira","bn_name":"সাতক্ষীরা","lat":"22.31548100","lng":"89.11145300","website":"www.satkhira.gov.bd"}
]
}
,{"type":"table","name":"divisions","database":"db_restaurant","data":
[
{"id":"1","name":"Barishal","bn_name":"বরিশাল","lat":"22.70100200","lng":"90.35345100"},
{"id":"2","name":"Chattogram","bn_name":"চট্টগ্রাম","lat":"22.35685100","lng":"91.78318200"},
{"id":"3","name":"Dhaka","bn_name":"ঢাকা","lat":"23.78062070","lng":"90.34928600"},
{"id":"4","name":"Khulna","bn_name":"খুলনা","lat":"22.84564100","lng":"89.54032800"},
{"id":"5","name":"Rajshahi","bn_name":"রাজশাহী","lat":"24.36358900","lng":"88.62413500"},
{"id":"6","name":"Rangpur","bn_name":"রংপুর","lat":"25.74389200","lng":"89.27522700"},
{"id":"7","name":"Sylhet","bn_name":"সিলেট","lat":"24.89492900","lng":"91.86870600"},
{"id":"8","name":"Mymensingh","bn_name":"ময়মনসিংহ","lat":"24.74714900","lng":"90.42027300"}
]
}
,{"type":"table","name":"upazilas","database":"db_restaurant","data":
[
{"id":"1","district_id":"34","name":"Amtali","bn_name":"আমতলী","lat":"22.13390900","lng":"90.23619300"},
{"id":"2","district_id":"34","name":"Bamna ","bn_name":"বামনা","lat":"22.27415500","lng":"90.06533400"},
{"id":"3","district_id":"34","name":"Barguna Sadar ","bn_name":"বরগুনা সদর","lat":"22.11914900","lng":"90.09336900"},
{"id":"4","district_id":"34","name":"Betagi ","bn_name":"বেতাগি","lat":"22.41416100","lng":"90.16588600"},
{"id":"5","district_id":"34","name":"Patharghata ","bn_name":"পাথরঘাটা","lat":"22.07147400","lng":"89.94400600"},
{"id":"6","district_id":"34","name":"Taltali ","bn_name":"তালতলী","lat":"22.02373900","lng":"90.13078000"},
{"id":"7","district_id":"35","name":"Muladi ","bn_name":"মুলাদি","lat":"22.88753400","lng":"90.38896200"},
{"id":"8","district_id":"35","name":"Babuganj ","bn_name":"বাবুগঞ্জ","lat":"22.83406800","lng":"90.31837900"},
{"id":"9","district_id":"35","name":"Agailjhara ","bn_name":"আগাইলঝরা","lat":"22.97132900","lng":"90.16354400"},
{"id":"10","district_id":"35","name":"Barisal Sadar ","bn_name":"বরিশাল সদর","lat":"22.73846900","lng":"90.43137300"},
{"id":"11","district_id":"35","name":"Bakerganj ","bn_name":"বাকেরগঞ্জ","lat":"22.54787000","lng":"90.39367200"},
{"id":"12","district_id":"35","name":"Banaripara ","bn_name":"বানাড়িপারা","lat":"22.82242200","lng":"90.12142300"},
{"id":"13","district_id":"35","name":"Gaurnadi ","bn_name":"গৌরনদী","lat":"22.94142600","lng":"90.25261600"},
{"id":"14","district_id":"35","name":"Hizla ","bn_name":"হিজলা","lat":"22.97644000","lng":"90.54469100"},
{"id":"15","district_id":"35","name":"Mehendiganj ","bn_name":"মেহেদিগঞ্জ","lat":"22.82607000","lng":"90.52696400"},
{"id":"16","district_id":"35","name":"Wazirpur ","bn_name":"ওয়াজিরপুর","lat":"22.88202200","lng":"90.09336900"},
{"id":"17","district_id":"36","name":"Bhola Sadar ","bn_name":"ভোলা সদর","lat":"22.69018100","lng":"90.62041600"},
{"id":"18","district_id":"36","name":"Burhanuddin ","bn_name":"বুরহানউদ্দিন","lat":"22.47525100","lng":"90.71527500"},
{"id":"19","district_id":"36","name":"Char Fasson ","bn_name":"চর ফ্যাশন","lat":"22.19953500","lng":"90.72596000"},
{"id":"20","district_id":"36","name":"Daulatkhan ","bn_name":"দৌলতখান","lat":"22.60510900","lng":"90.74136600"},
{"id":"21","district_id":"36","name":"Lalmohan ","bn_name":"লালমোহন","lat":"22.30810600","lng":"90.77229700"},
{"id":"22","district_id":"36","name":"Manpura ","bn_name":"মনপুরা","lat":"22.19985900","lng":"90.95339800"},
{"id":"23","district_id":"36","name":"Tazumuddin ","bn_name":"তাজুমুদ্দিন","lat":"22.41797900","lng":"90.85083500"},
{"id":"24","district_id":"37","name":"Jhalokati Sadar ","bn_name":"ঝালকাঠি সদর","lat":"22.69124500","lng":"90.20571100"},
{"id":"25","district_id":"37","name":"Kathalia ","bn_name":"কাঁঠালিয়া","lat":"22.40527800","lng":"90.09336900"},
{"id":"26","district_id":"37","name":"Nalchity ","bn_name":"নালচিতি","lat":"22.59578300","lng":"90.28078700"},
{"id":"27","district_id":"37","name":"Rajapur ","bn_name":"রাজাপুর","lat":"22.54829600","lng":"90.13078000"},
{"id":"28","district_id":"38","name":"Bauphal ","bn_name":"বাউফল","lat":"22.41925300","lng":"90.55651400"},
{"id":"29","district_id":"38","name":"Dashmina ","bn_name":"দশমিনা","lat":"22.27914000","lng":"90.56834000"},
{"id":"30","district_id":"38","name":"Galachipa ","bn_name":"গলাচিপা","lat":"22.16337300","lng":"90.41016200"},
{"id":"31","district_id":"38","name":"Kalapara ","bn_name":"কালাপারা","lat":"21.90444900","lng":"90.18696400"},
{"id":"32","district_id":"38","name":"Mirzaganj ","bn_name":"মির্জাগঞ্জ","lat":"22.36245300","lng":"90.21088200"},
{"id":"33","district_id":"38","name":"Patuakhali Sadar ","bn_name":"পটুয়াখালী সদর","lat":"22.35723100","lng":"90.35600800"},
{"id":"34","district_id":"38","name":"Dumki ","bn_name":"ডুমকি","lat":"22.46445300","lng":"90.38425300"},
{"id":"35","district_id":"38","name":"Rangabali ","bn_name":"রাঙ্গাবালি","lat":"21.90404000","lng":"90.41251800"},
{"id":"36","district_id":"39","name":"Bhandaria","bn_name":"ভ্যান্ডারিয়া","lat":"22.44106700","lng":"90.00932700"},
{"id":"37","district_id":"39","name":"Kaukhali","bn_name":"কাউখালি","lat":"22.62580900","lng":"90.07000500"},
{"id":"38","district_id":"39","name":"Mathbaria","bn_name":"মাঠবাড়িয়া","lat":"22.29204600","lng":"89.95801200"},
{"id":"39","district_id":"39","name":"Nazirpur","bn_name":"নাজিরপুর","lat":"22.78671600","lng":"89.98134400"},
{"id":"40","district_id":"39","name":"Nesarabad","bn_name":"নেসারাবাদ","lat":"22.74496400","lng":"90.11674600"},
{"id":"41","district_id":"39","name":"Pirojpur Sadar","bn_name":"পিরোজপুর সদর","lat":"22.59602600","lng":"89.98134400"},
{"id":"42","district_id":"39","name":"Zianagar","bn_name":"জিয়ানগর","lat":"22.48576400","lng":"89.96034600"},
{"id":"43","district_id":"40","name":"Bandarban Sadar","bn_name":"বান্দরবন সদর","lat":"22.24684800","lng":"92.24334900"},
{"id":"44","district_id":"40","name":"Thanchi","bn_name":"থানচি","lat":"21.82109600","lng":"92.43569600"},
{"id":"45","district_id":"40","name":"Lama","bn_name":"লামা","lat":"21.79374700","lng":"92.26303900"},
{"id":"46","district_id":"40","name":"Naikhongchhari","bn_name":"নাইখংছড়ি ","lat":"21.42694800","lng":"92.17572800"},
{"id":"47","district_id":"40","name":"Ali kadam","bn_name":"আলী কদম","lat":"21.65300900","lng":"92.31476800"},
{"id":"48","district_id":"40","name":"Rowangchhari","bn_name":"রউয়াংছড়ি ","lat":"22.19752200","lng":"92.36162000"},
{"id":"49","district_id":"40","name":"Ruma","bn_name":"রুমা","lat":"21.98100000","lng":"92.49999200"},
{"id":"50","district_id":"41","name":"Brahmanbaria Sadar ","bn_name":"ব্রাহ্মণবাড়িয়া সদর","lat":"23.92582500","lng":"91.11611700"},
{"id":"51","district_id":"41","name":"Ashuganj ","bn_name":"আশুগঞ্জ","lat":"24.02773800","lng":"90.99640900"},
{"id":"52","district_id":"41","name":"Nasirnagar ","bn_name":"নাসির নগর","lat":"24.18700200","lng":"91.17369900"},
{"id":"53","district_id":"41","name":"Nabinagar ","bn_name":"নবীনগর","lat":"23.88821000","lng":"90.96056400"},
{"id":"54","district_id":"41","name":"Sarail ","bn_name":"সরাইল","lat":"24.11637300","lng":"91.07777200"},
{"id":"55","district_id":"41","name":"Shahbazpur Town","bn_name":"শাহবাজপুর টাউন","lat":"24.05599600","lng":"91.20252100"},
{"id":"56","district_id":"41","name":"Kasba ","bn_name":"কসবা","lat":"23.78307000","lng":"91.11611700"},
{"id":"57","district_id":"41","name":"Akhaura ","bn_name":"আখাউরা","lat":"23.86861900","lng":"91.20972900"},
{"id":"58","district_id":"41","name":"Bancharampur ","bn_name":"বাঞ্ছারামপুর","lat":"23.78496700","lng":"90.81035700"},
{"id":"59","district_id":"41","name":"Bijoynagar ","bn_name":"বিজয় নগর","lat":"24.01418600","lng":"91.22655400"},
{"id":"60","district_id":"42","name":"Chandpur Sadar","bn_name":"চাঁদপুর সদর","lat":"23.23209900","lng":"90.66307500"},
{"id":"61","district_id":"42","name":"Faridganj","bn_name":"ফরিদগঞ্জ","lat":"23.12748800","lng":"90.75090400"},
{"id":"62","district_id":"42","name":"Haimchar","bn_name":"হাইমচর","lat":"23.05944300","lng":"90.64885000"},
{"id":"63","district_id":"42","name":"Haziganj","bn_name":"হাজীগঞ্জ","lat":"23.25204100","lng":"90.85083500"},
{"id":"64","district_id":"42","name":"Kachua","bn_name":"কচুয়া","lat":"23.34114400","lng":"90.88896800"},
{"id":"65","district_id":"42","name":"Matlab Uttar","bn_name":"মতলব উত্তর","lat":"23.42868200","lng":"90.63937000"},
{"id":"66","district_id":"42","name":"Matlab Dakkhin","bn_name":"মতলব দক্ষিণ","lat":"23.34478300","lng":"90.76278800"},
{"id":"67","district_id":"42","name":"Shahrasti","bn_name":"শাহরাস্তি","lat":"23.23064300","lng":"90.94862200"},
{"id":"68","district_id":"43","name":"Anwara ","bn_name":"আনোয়ারা","lat":"22.23371600","lng":"91.86598100"},
{"id":"69","district_id":"43","name":"Banshkhali ","bn_name":"বাশখালি","lat":"21.98843000","lng":"91.94902100"},
{"id":"70","district_id":"43","name":"Boalkhali ","bn_name":"বোয়ালখালি","lat":"22.37910600","lng":"91.91725200"},
{"id":"71","district_id":"43","name":"Chandanaish ","bn_name":"চন্দনাইশ","lat":"22.24389400","lng":"92.01262800"},
{"id":"72","district_id":"43","name":"Fatikchhari ","bn_name":"ফটিকছড়ি","lat":"22.75372600","lng":"91.71495800"},
{"id":"73","district_id":"43","name":"Hathazari ","bn_name":"হাঠহাজারী","lat":"22.50846300","lng":"91.80745900"},
{"id":"74","district_id":"43","name":"Lohagara ","bn_name":"লোহাগারা","lat":"22.04019500","lng":"92.10084900"},
{"id":"75","district_id":"43","name":"Mirsharai ","bn_name":"মিরসরাই","lat":"22.77303900","lng":"91.57415200"},
{"id":"76","district_id":"43","name":"Patiya ","bn_name":"পটিয়া","lat":"22.29805700","lng":"91.96858300"},
{"id":"77","district_id":"43","name":"Rangunia ","bn_name":"রাঙ্গুনিয়া","lat":"22.48724200","lng":"92.08613300"},
{"id":"78","district_id":"43","name":"Raozan ","bn_name":"রাউজান","lat":"22.53684300","lng":"91.92946800"},
{"id":"79","district_id":"43","name":"Sandwip ","bn_name":"সন্দ্বীপ","lat":"22.49194000","lng":"91.42089100"},
{"id":"80","district_id":"43","name":"Satkania ","bn_name":"সাতকানিয়া","lat":"22.10592800","lng":"92.08613300"},
{"id":"81","district_id":"43","name":"Sitakunda ","bn_name":"সীতাকুণ্ড","lat":"22.55127800","lng":"91.70523200"},
{"id":"82","district_id":"44","name":"Barura ","bn_name":"বড়ুরা","lat":"23.35510600","lng":"91.03946400"},
{"id":"83","district_id":"44","name":"Brahmanpara ","bn_name":"ব্রাহ্মণপাড়া","lat":"23.62252700","lng":"91.10173300"},
{"id":"84","district_id":"44","name":"Burichong ","bn_name":"বুড়িচং","lat":"23.56288000","lng":"91.12091200"},
{"id":"85","district_id":"44","name":"Chandina ","bn_name":"চান্দিনা","lat":"23.48924800","lng":"91.00836400"},
{"id":"86","district_id":"44","name":"Chauddagram ","bn_name":"চৌদ্দগ্রাম","lat":"23.30579000","lng":"91.26984700"},
{"id":"87","district_id":"44","name":"Daudkandi ","bn_name":"দাউদকান্দি","lat":"23.49951800","lng":"90.77229700"},
{"id":"88","district_id":"44","name":"Debidwar ","bn_name":"দেবীদ্বার","lat":"23.61145400","lng":"90.97728700"},
{"id":"89","district_id":"44","name":"Homna ","bn_name":"হোমনা","lat":"23.68247300","lng":"90.78329100"},
{"id":"90","district_id":"44","name":"Comilla Sadar ","bn_name":"কুমিল্লা সদর","lat":"23.46138400","lng":"91.16409700"},
{"id":"91","district_id":"44","name":"Laksam ","bn_name":"লাকসাম","lat":"23.21168600","lng":"91.11611700"},
{"id":"92","district_id":"44","name":"Monohorgonj ","bn_name":"মনোহরগঞ্জ","lat":"23.11667100","lng":"91.07777200"},
{"id":"93","district_id":"44","name":"Meghna ","bn_name":"মেঘনা","lat":"23.62665800","lng":"90.62053300"},
{"id":"94","district_id":"44","name":"Muradnagar ","bn_name":"মুরাদনগর","lat":"23.71281800","lng":"90.94384700"},
{"id":"95","district_id":"44","name":"Nangalkot ","bn_name":"নাঙ্গালকোট","lat":"23.16940600","lng":"91.19771600"},
{"id":"96","district_id":"44","name":"Comilla Sadar South ","bn_name":"কুমিল্লা সদর দক্ষিণ","lat":"23.30667700","lng":"91.15449600"},
{"id":"97","district_id":"44","name":"Titas ","bn_name":"তিতাস","lat":"23.76669100","lng":"90.86770200"},
{"id":"98","district_id":"45","name":"Chakaria ","bn_name":"চকরিয়া","lat":"21.76190500","lng":"92.07755100"},
{"id":"100","district_id":"45","name":"Cox's Bazar Sadar","bn_name":"কক্স বাজার সদর","lat":"21.43830300","lng":"91.99529300"},
{"id":"101","district_id":"45","name":"Kutubdia ","bn_name":"কুতুবদিয়া","lat":"21.81666700","lng":"91.85833300"},
{"id":"102","district_id":"45","name":"Maheshkhali ","bn_name":"মহেশখালী","lat":"21.58341000","lng":"91.92946800"},
{"id":"103","district_id":"45","name":"Ramu ","bn_name":"রামু","lat":"21.43236800","lng":"92.10084900"},
{"id":"104","district_id":"45","name":"Teknaf ","bn_name":"টেকনাফ","lat":"21.05566500","lng":"92.20399300"},
{"id":"105","district_id":"45","name":"Ukhia ","bn_name":"উখিয়া","lat":"21.22374400","lng":"92.10575500"},
{"id":"106","district_id":"45","name":"Pekua ","bn_name":"পেকুয়া","lat":"21.81555000","lng":"91.95391100"},
{"id":"107","district_id":"46","name":"Feni Sadar","bn_name":"ফেনী সদর","lat":"22.97100900","lng":"91.42414300"},
{"id":"108","district_id":"46","name":"Chagalnaiya","bn_name":"ছাগল নাইয়া","lat":"23.03862800","lng":"91.51844200"},
{"id":"109","district_id":"46","name":"Daganbhyan","bn_name":"দাগানভিয়া","lat":"22.97200100","lng":"91.30836900"},
{"id":"110","district_id":"46","name":"Parshuram","bn_name":"পরশুরাম","lat":"23.20921200","lng":"91.42414300"},
{"id":"111","district_id":"46","name":"Fhulgazi","bn_name":"ফুলগাজি","lat":"23.11394000","lng":"91.42414300"},
{"id":"112","district_id":"46","name":"Sonagazi","bn_name":"সোনাগাজি","lat":"22.87604800","lng":"91.38551600"},
{"id":"113","district_id":"47","name":"Dighinala ","bn_name":"দিঘিনালা","lat":"23.24084700","lng":"92.06406900"},
{"id":"114","district_id":"47","name":"Khagrachhari ","bn_name":"খাগড়াছড়ি","lat":"23.13217500","lng":"91.94902100"},
{"id":"115","district_id":"47","name":"Lakshmichhari ","bn_name":"লক্ষ্মীছড়ি","lat":"22.79616800","lng":"91.91236600"},
{"id":"116","district_id":"47","name":"Mahalchhari ","bn_name":"মহলছড়ি","lat":"22.93169800","lng":"92.02976800"},
{"id":"117","district_id":"47","name":"Manikchhari ","bn_name":"মানিকছড়ি","lat":"22.84172300","lng":"91.83671000"},
{"id":"118","district_id":"47","name":"Matiranga ","bn_name":"মাটিরাঙ্গা","lat":"23.04079900","lng":"91.87330200"},
{"id":"119","district_id":"47","name":"Panchhari ","bn_name":"পানছড়ি","lat":"23.30245900","lng":"91.89771300"},
{"id":"120","district_id":"47","name":"Ramgarh ","bn_name":"রামগড়","lat":"22.96750700","lng":"91.77335700"},
{"id":"121","district_id":"48","name":"Lakshmipur Sadar ","bn_name":"লক্ষ্মীপুর সদর","lat":"22.95118300","lng":"90.86751300"},
{"id":"122","district_id":"48","name":"Raipur ","bn_name":"রায়পুর","lat":"22.97585000","lng":"90.69628500"},
{"id":"123","district_id":"48","name":"Ramganj ","bn_name":"রামগঞ্জ","lat":"23.11785400","lng":"90.88658300"},
{"id":"124","district_id":"48","name":"Ramgati ","bn_name":"রামগতি","lat":"22.65291400","lng":"90.93429700"},
{"id":"125","district_id":"48","name":"Komol Nagar ","bn_name":"কমল নগর","lat":"22.78447400","lng":"90.84845200"},
{"id":"126","district_id":"49","name":"Noakhali Sadar ","bn_name":"নোয়াখালী সদর","lat":"22.83101200","lng":"91.03946400"},
{"id":"127","district_id":"49","name":"Begumganj ","bn_name":"বেগমগঞ্জ","lat":"22.93193300","lng":"91.09214700"},
{"id":"128","district_id":"49","name":"Chatkhil ","bn_name":"চাটখিল","lat":"23.05779300","lng":"90.97250900"},
{"id":"129","district_id":"49","name":"Companyganj ","bn_name":"কোম্পানীগঞ্জ","lat":"22.82935200","lng":"91.26984700"},
{"id":"130","district_id":"49","name":"Shenbag ","bn_name":"শেনবাগ","lat":"22.97261500","lng":"91.23136200"},
{"id":"131","district_id":"49","name":"Hatia ","bn_name":"হাতিয়া","lat":"22.65305600","lng":"90.99805600"},
{"id":"132","district_id":"49","name":"Kobirhat ","bn_name":"কবিরহাট","lat":"22.79564300","lng":"91.19891700"},
{"id":"133","district_id":"49","name":"Sonaimuri ","bn_name":"সোনাইমুরি","lat":"23.05092700","lng":"91.11132200"},
{"id":"134","district_id":"49","name":"Suborno Char ","bn_name":"সুবর্ণ চর","lat":"22.66380600","lng":"91.09694000"},
{"id":"135","district_id":"50","name":"Rangamati Sadar ","bn_name":"রাঙ্গামাটি সদর","lat":"22.65273300","lng":"92.18432800"},
{"id":"136","district_id":"50","name":"Belaichhari ","bn_name":"বেলাইছড়ি","lat":"22.36226000","lng":"92.49999200"},
{"id":"137","district_id":"50","name":"Bagaichhari ","bn_name":"বাঘাইছড়ি","lat":"23.46184200","lng":"92.22366700"},
{"id":"138","district_id":"50","name":"Barkal ","bn_name":"বরকল","lat":"22.72515600","lng":"92.37951100"},
{"id":"139","district_id":"50","name":"Juraichhari ","bn_name":"জুরাইছড়ি","lat":"22.67082200","lng":"92.37889400"},
{"id":"140","district_id":"50","name":"Rajasthali ","bn_name":"রাজাস্থলি","lat":"22.38928100","lng":"92.28273800"},
{"id":"141","district_id":"50","name":"Kaptai ","bn_name":"কাপ্তাই","lat":"22.49438200","lng":"92.22120700"},
{"id":"142","district_id":"50","name":"Langadu ","bn_name":"লাঙ্গাডু","lat":"22.93858900","lng":"92.18432800"},
{"id":"143","district_id":"50","name":"Nannerchar ","bn_name":"নান্নেরচর","lat":"22.86216700","lng":"92.11066200"},
{"id":"144","district_id":"50","name":"Kaukhali ","bn_name":"কাউখালি","lat":"22.62580900","lng":"90.07000500"},
{"id":"150","district_id":"2","name":"Faridpur Sadar ","bn_name":"ফরিদপুর সদর","lat":"23.62035200","lng":"89.81303600"},
{"id":"151","district_id":"2","name":"Boalmari ","bn_name":"বোয়ালমারী","lat":"23.40584700","lng":"89.68162100"},
{"id":"152","district_id":"2","name":"Alfadanga ","bn_name":"আলফাডাঙ্গা","lat":"23.27487300","lng":"89.69102200"},
{"id":"153","district_id":"2","name":"Madhukhali ","bn_name":"মধুখালি","lat":"23.54854600","lng":"89.60632800"},
{"id":"154","district_id":"2","name":"Bhanga ","bn_name":"ভাঙ্গা","lat":"23.40616900","lng":"90.01865600"},
{"id":"155","district_id":"2","name":"Nagarkanda ","bn_name":"নগরকান্ড","lat":"23.45376900","lng":"89.90663100"},
{"id":"156","district_id":"2","name":"Charbhadrasan ","bn_name":"চরভদ্রাসন","lat":"23.59665700","lng":"89.98134400"},
{"id":"157","district_id":"2","name":"Sadarpur ","bn_name":"সদরপুর","lat":"23.50141100","lng":"90.05599400"},
{"id":"158","district_id":"2","name":"Shaltha ","bn_name":"শালথা","lat":"23.43281000","lng":"89.78256800"},
{"id":"159","district_id":"3","name":"Gazipur Sadar-Joydebpur","bn_name":"গাজীপুর সদর","lat":"23.99994100","lng":"90.42027200"},
{"id":"160","district_id":"3","name":"Kaliakior","bn_name":"কালিয়াকৈর","lat":"24.11989700","lng":"90.28078700"},
{"id":"161","district_id":"3","name":"Kapasia","bn_name":"কাপাসিয়া","lat":"24.16661000","lng":"90.58253600"},
{"id":"162","district_id":"3","name":"Sripur","bn_name":"শ্রীপুর","lat":"24.19965700","lng":"90.48091000"},
{"id":"163","district_id":"3","name":"Kaliganj","bn_name":"কালীগঞ্জ","lat":"23.96447800","lng":"90.57307100"},
{"id":"164","district_id":"3","name":"Tongi","bn_name":"টঙ্গি","lat":"23.90104100","lng":"90.40882200"},
{"id":"165","district_id":"4","name":"Gopalganj Sadar ","bn_name":"গোপালগঞ্জ সদর","lat":"23.90104100","lng":"90.40882200"},
{"id":"166","district_id":"4","name":"Kashiani ","bn_name":"কাশিয়ানি","lat":"23.16784600","lng":"89.79428900"},
{"id":"167","district_id":"4","name":"Kotalipara ","bn_name":"কোটালিপাড়া","lat":"23.04885000","lng":"90.03732000"},
{"id":"168","district_id":"4","name":"Muksudpur ","bn_name":"মুকসুদপুর","lat":"23.26323800","lng":"89.90663100"},
{"id":"169","district_id":"4","name":"Tungipara ","bn_name":"টুঙ্গিপাড়া","lat":"22.90733700","lng":"89.89845100"},
{"id":"170","district_id":"5","name":"Dewanganj ","bn_name":"দেওয়ানগঞ্জ","lat":"25.21243000","lng":"89.75676900"},
{"id":"171","district_id":"5","name":"Baksiganj ","bn_name":"বকসিগঞ্জ","lat":"25.18441100","lng":"89.86805100"},
{"id":"172","district_id":"5","name":"Islampur ","bn_name":"ইসলামপুর","lat":"25.07012500","lng":"89.75676900"},
{"id":"173","district_id":"5","name":"Jamalpur Sadar ","bn_name":"জামালপুর সদর","lat":"24.85674400","lng":"90.03732000"},
{"id":"174","district_id":"5","name":"Madarganj ","bn_name":"মাদারগঞ্জ","lat":"24.88028800","lng":"89.75676900"},
{"id":"175","district_id":"5","name":"Melandaha ","bn_name":"মেলানদাহা","lat":"24.98125000","lng":"89.82708900"},
{"id":"176","district_id":"5","name":"Sarishabari ","bn_name":"সরিষাবাড়ি","lat":"24.75129700","lng":"89.82826000"},
{"id":"177","district_id":"5","name":"Narundi Police I.C","bn_name":"নারুন্দি","lat":"24.86260000","lng":"90.11670000"},
{"id":"178","district_id":"6","name":"Astagram ","bn_name":"অষ্টগ্রাম","lat":"24.27953500","lng":"91.11851400"},
{"id":"179","district_id":"6","name":"Bajitpur ","bn_name":"বাজিতপুর","lat":"24.21379900","lng":"90.95220400"},
{"id":"180","district_id":"6","name":"Bhairab ","bn_name":"ভৈরব","lat":"24.04415900","lng":"90.98565200"},
{"id":"181","district_id":"6","name":"Hossainpur ","bn_name":"হোসেনপুর","lat":"24.43963100","lng":"90.66781800"},
{"id":"182","district_id":"6","name":"Itna ","bn_name":"ইটনা","lat":"24.54419200","lng":"91.07777200"},
{"id":"183","district_id":"6","name":"Karimganj ","bn_name":"করিমগঞ্জ","lat":"24.45039500","lng":"90.88658300"},
{"id":"184","district_id":"6","name":"Katiadi ","bn_name":"কতিয়াদি","lat":"24.30822200","lng":"90.81035700"},
{"id":"185","district_id":"6","name":"Kishoreganj Sadar ","bn_name":"কিশোরগঞ্জ সদর","lat":"24.40349100","lng":"90.77229700"},
{"id":"186","district_id":"6","name":"Kuliarchar ","bn_name":"কুলিয়ারচর","lat":"24.15320900","lng":"90.89612200"},
{"id":"187","district_id":"6","name":"Mithamain ","bn_name":"মিঠামাইন","lat":"24.41955800","lng":"91.06340200"},
{"id":"188","district_id":"6","name":"Nikli ","bn_name":"নিকলি","lat":"24.35487300","lng":"90.96295200"},
{"id":"189","district_id":"6","name":"Pakundia ","bn_name":"পাকুন্ডা","lat":"24.30878500","lng":"90.69628500"},
{"id":"190","district_id":"6","name":"Tarail ","bn_name":"তাড়াইল","lat":"24.54520200","lng":"90.92475000"},
{"id":"191","district_id":"7","name":"Madaripur Sadar","bn_name":"মাদারীপুর সদর","lat":"23.21553500","lng":"90.16822700"},
{"id":"192","district_id":"7","name":"Kalkini","bn_name":"কালকিনি","lat":"23.07243300","lng":"90.28078700"},
{"id":"193","district_id":"7","name":"Rajoir","bn_name":"রাজইর","lat":"23.20668300","lng":"90.04899000"},
{"id":"194","district_id":"7","name":"Shibchar","bn_name":"শিবচর","lat":"23.35844900","lng":"90.16822700"},
{"id":"195","district_id":"8","name":"Manikganj Sadar ","bn_name":"মানিকগঞ্জ সদর","lat":"23.83467700","lng":"90.01865600"},
{"id":"196","district_id":"8","name":"Singair ","bn_name":"সিঙ্গাইর","lat":"23.78699100","lng":"90.16822700"},
{"id":"197","district_id":"8","name":"Shibalaya ","bn_name":"শিবালয়","lat":"23.83462200","lng":"89.86922000"},
{"id":"198","district_id":"8","name":"Saturia ","bn_name":"সাঠুরিয়া","lat":"23.97297200","lng":"90.03615300"},
{"id":"199","district_id":"8","name":"Harirampur ","bn_name":"হরিরামপুর","lat":"23.71567600","lng":"89.96268000"},
{"id":"200","district_id":"8","name":"Ghior ","bn_name":"ঘিওর","lat":"23.87034800","lng":"89.91597800"},
{"id":"201","district_id":"8","name":"Daulatpur ","bn_name":"দৌলতপুর","lat":"23.94162600","lng":"89.80366400"},
{"id":"202","district_id":"9","name":"Lohajang ","bn_name":"লোহাজং","lat":"23.47430500","lng":"90.32073000"},
{"id":"203","district_id":"9","name":"Sreenagar ","bn_name":"শ্রীনগর","lat":"23.54879000","lng":"90.28078700"},
{"id":"204","district_id":"9","name":"Munshiganj Sadar ","bn_name":"মুন্সিগঞ্জ সদর","lat":"23.50047400","lng":"90.54469100"},
{"id":"205","district_id":"9","name":"Sirajdikhan ","bn_name":"সিরাজদিখান","lat":"23.59616200","lng":"90.39367200"},
{"id":"206","district_id":"9","name":"Tongibari ","bn_name":"টঙ্গিবাড়ি","lat":"23.50965500","lng":"90.46675000"},
{"id":"207","district_id":"9","name":"Gazaria ","bn_name":"গজারিয়া","lat":"23.54781100","lng":"90.62041600"},
{"id":"208","district_id":"10","name":"Bhaluka","bn_name":"ভালুকা","lat":"24.40792900","lng":"90.38660700"},
{"id":"209","district_id":"10","name":"Trishal","bn_name":"ত্রিশাল","lat":"24.58165800","lng":"90.39485000"},
{"id":"210","district_id":"10","name":"Haluaghat","bn_name":"হালুয়াঘাট","lat":"25.11734000","lng":"90.35600800"},
{"id":"211","district_id":"10","name":"Muktagachha","bn_name":"মুক্তাগাছা","lat":"24.76601800","lng":"90.25613700"},
{"id":"212","district_id":"10","name":"Dhobaura","bn_name":"ধবারুয়া","lat":"25.11690400","lng":"90.50688200"},
{"id":"213","district_id":"10","name":"Fulbaria","bn_name":"ফুলবাড়িয়া","lat":"24.57155300","lng":"90.26200400"},
{"id":"214","district_id":"10","name":"Gaffargaon","bn_name":"গফরগাঁও","lat":"24.45718500","lng":"90.54869600"},
{"id":"215","district_id":"10","name":"Gauripur","bn_name":"গৌরিপুর","lat":"24.73691300","lng":"90.58253600"},
{"id":"216","district_id":"10","name":"Ishwarganj","bn_name":"ঈশ্বরগঞ্জ","lat":"24.69234200","lng":"90.59437000"},
{"id":"217","district_id":"10","name":"Mymensingh Sadar","bn_name":"ময়মনসিং সদর","lat":"24.78510600","lng":"90.35600800"},
{"id":"218","district_id":"10","name":"Nandail","bn_name":"নন্দাইল","lat":"24.56872200","lng":"90.69035300"},
{"id":"219","district_id":"10","name":"Phulpur","bn_name":"ফুলপুর","lat":"24.97507900","lng":"90.31837900"},
{"id":"220","district_id":"11","name":"Araihazar ","bn_name":"আড়াইহাজার","lat":"23.79165600","lng":"90.65359100"},
{"id":"221","district_id":"11","name":"Sonargaon ","bn_name":"সোনারগাঁও","lat":"23.69064200","lng":"90.62041600"},
{"id":"222","district_id":"11","name":"Bandar","bn_name":"বান্দার","lat":"23.63144900","lng":"90.53523600"},
{"id":"223","district_id":"11","name":"Naryanganj Sadar ","bn_name":"নারায়ানগঞ্জ সদর","lat":"23.63157400","lng":"90.49743600"},
{"id":"224","district_id":"11","name":"Rupganj ","bn_name":"রূপগঞ্জ","lat":"23.83372100","lng":"90.54469100"},
{"id":"225","district_id":"11","name":"Siddirgonj ","bn_name":"সিদ্ধিরগঞ্জ","lat":"23.71466000","lng":"90.56360900"},
{"id":"226","district_id":"12","name":"Belabo ","bn_name":"বেলাবো","lat":"24.10664700","lng":"90.85143000"},
{"id":"227","district_id":"12","name":"Monohardi ","bn_name":"মনোহরদি","lat":"24.16595800","lng":"90.73427300"},
{"id":"228","district_id":"12","name":"Narsingdi Sadar ","bn_name":"নরসিংদী সদর","lat":"23.88070200","lng":"90.69628500"},
{"id":"229","district_id":"12","name":"Palash ","bn_name":"পলাশ","lat":"23.96417800","lng":"90.64885000"},
{"id":"230","district_id":"12","name":"Raipura , Narsingdi","bn_name":"রায়পুর","lat":"23.97490000","lng":"90.88660000"},
{"id":"231","district_id":"12","name":"Shibpur ","bn_name":"শিবপুর","lat":"24.02307900","lng":"90.77229700"},
{"id":"232","district_id":"13","name":"Kendua","bn_name":"কেন্দুয়া","lat":"24.68836900","lng":"90.81035700"},
{"id":"233","district_id":"13","name":"Atpara","bn_name":"আটপাড়া","lat":"24.80977600","lng":"90.86036500"},
{"id":"234","district_id":"13","name":"Barhatta","bn_name":"বরহাট্টা","lat":"24.92533300","lng":"90.88658300"},
{"id":"235","district_id":"13","name":"Durgapur","bn_name":"দুর্গাপুর","lat":"25.11327300","lng":"90.67493300"},
{"id":"236","district_id":"13","name":"Kalmakanda","bn_name":"কলমাকান্দা","lat":"25.06791200","lng":"90.84845200"},
{"id":"237","district_id":"13","name":"Madan","bn_name":"মদন","lat":"24.71430000","lng":"90.94620000"},
{"id":"238","district_id":"13","name":"Mohanganj","bn_name":"মোহনগঞ্জ","lat":"24.87432200","lng":"90.97967700"},
{"id":"239","district_id":"13","name":"Netrakona Sadar","bn_name":"নেত্রকোনা সদর","lat":"24.85500000","lng":"90.71530000"},
{"id":"240","district_id":"13","name":"Purbadhala","bn_name":"পূর্বধলা","lat":"24.92682300","lng":"90.58253600"},
{"id":"241","district_id":"13","name":"Khaliajuri","bn_name":"খালিয়াজুরি","lat":"24.68641800","lng":"91.11611700"},
{"id":"242","district_id":"14","name":"Baliakandi ","bn_name":"বালিয়াকান্দি","lat":"23.63468700","lng":"89.54740500"},
{"id":"243","district_id":"14","name":"Goalandaghat ","bn_name":"গোয়ালন্দ ঘাট","lat":"23.73929200","lng":"89.75676900"},
{"id":"244","district_id":"14","name":"Pangsha ","bn_name":"পাংশা","lat":"23.78002200","lng":"89.41273100"},
{"id":"245","district_id":"14","name":"Kalukhali ","bn_name":"কালুখালি","lat":"23.42795400","lng":"89.08314300"},
{"id":"246","district_id":"14","name":"Rajbari Sadar ","bn_name":"রাজবাড়ি সদর","lat":"23.71531500","lng":"89.66281100"},
{"id":"247","district_id":"15","name":"Shariatpur Sadar -Palong","bn_name":"শরীয়তপুর সদর ","lat":"23.21530000","lng":"90.31840000"},
{"id":"248","district_id":"15","name":"Damudya ","bn_name":"দামুদিয়া","lat":"23.13168200","lng":"90.42194400"},
{"id":"249","district_id":"15","name":"Naria ","bn_name":"নড়িয়া","lat":"23.26267600","lng":"90.43137300"},
{"id":"250","district_id":"15","name":"Jajira ","bn_name":"জাজিরা","lat":"23.34783100","lng":"90.30075300"},
{"id":"251","district_id":"15","name":"Bhedarganj ","bn_name":"ভেদারগঞ্জ","lat":"23.21481200","lng":"90.50688200"},
{"id":"252","district_id":"15","name":"Gosairhat ","bn_name":"গোসাইর হাট","lat":"23.09884000","lng":"90.45259500"},
{"id":"253","district_id":"16","name":"Jhenaigati ","bn_name":"ঝিনাইগাতি","lat":"25.18593800","lng":"90.06299900"},
{"id":"254","district_id":"16","name":"Nakla ","bn_name":"নাকলা","lat":"24.97527600","lng":"90.20571100"},
{"id":"255","district_id":"16","name":"Nalitabari ","bn_name":"নালিতাবাড়ি","lat":"25.14136700","lng":"90.18696400"},
{"id":"256","district_id":"16","name":"Sherpur Sadar ","bn_name":"শেরপুর সদর","lat":"25.02287200","lng":"90.01865600"},
{"id":"257","district_id":"16","name":"Sreebardi ","bn_name":"শ্রীবরদি","lat":"25.14740100","lng":"89.93933600"},
{"id":"258","district_id":"17","name":"Tangail Sadar ","bn_name":"টাঙ্গাইল সদর","lat":"24.26276900","lng":"89.86922000"},
{"id":"259","district_id":"17","name":"Sakhipur ","bn_name":"সখিপুর","lat":"24.28648500","lng":"90.18696400"},
{"id":"260","district_id":"17","name":"Basail ","bn_name":"বাসাইল","lat":"24.23309700","lng":"90.05132500"},
{"id":"261","district_id":"17","name":"Madhupur ","bn_name":"মধুপুর","lat":"24.64303200","lng":"90.05599400"},
{"id":"262","district_id":"17","name":"Ghatail ","bn_name":"ঘাটাইল","lat":"24.47673800","lng":"90.03732000"},
{"id":"263","district_id":"17","name":"Kalihati ","bn_name":"কালিহাতি","lat":"24.35790300","lng":"89.94400600"},
{"id":"264","district_id":"17","name":"Nagarpur ","bn_name":"নগরপুর","lat":"24.05767100","lng":"89.87623800"},
{"id":"265","district_id":"17","name":"Mirzapur ","bn_name":"মির্জাপুর","lat":"24.10525300","lng":"90.10505600"},
{"id":"266","district_id":"17","name":"Gopalpur ","bn_name":"গোপালপুর","lat":"24.56285400","lng":"89.92765900"},
{"id":"267","district_id":"17","name":"Delduar ","bn_name":"দেলদুয়ার","lat":"24.12014300","lng":"89.94400600"},
{"id":"268","district_id":"17","name":"Bhuapur ","bn_name":"ভুয়াপুর","lat":"24.45284000","lng":"89.79428900"},
{"id":"269","district_id":"17","name":"Dhanbari ","bn_name":"ধানবাড়ি","lat":"24.69053300","lng":"89.94400600"},
{"id":"270","district_id":"55","name":"Bagerhat Sadar ","bn_name":"বাগেরহাট সদর","lat":"22.65545200","lng":"89.76615300"},
{"id":"271","district_id":"55","name":"Chitalmari ","bn_name":"চিতলমাড়ি","lat":"22.78666400","lng":"89.86922000"},
{"id":"272","district_id":"55","name":"Fakirhat ","bn_name":"ফকিরহাট","lat":"22.77751300","lng":"89.70747000"},
{"id":"273","district_id":"55","name":"Kachua ","bn_name":"কচুয়া","lat":"23.34114400","lng":"90.88896800"},
{"id":"274","district_id":"55","name":"Mollahat ","bn_name":"মোল্লাহাট","lat":"22.88186400","lng":"89.75676900"},
{"id":"275","district_id":"55","name":"Mongla ","bn_name":"মংলা","lat":"22.49422000","lng":"89.60161700"},
{"id":"276","district_id":"55","name":"Morrelganj ","bn_name":"মরেলগঞ্জ","lat":"22.44994100","lng":"89.85284200"},
{"id":"277","district_id":"55","name":"Rampal ","bn_name":"রামপাল","lat":"22.59571300","lng":"89.68162100"},
{"id":"278","district_id":"55","name":"Sarankhola ","bn_name":"স্মরণখোলা","lat":"22.09522300","lng":"89.81303600"},
{"id":"279","district_id":"56","name":"Damurhuda ","bn_name":"দামুরহুদা","lat":"23.60673800","lng":"88.77585000"},
{"id":"280","district_id":"56","name":"Chuadanga Sadar ","bn_name":"চুয়াডাঙ্গা সদর","lat":"23.64198400","lng":"88.85657600"},
{"id":"281","district_id":"56","name":"Jibannagar ","bn_name":"জীবন নগর","lat":"23.42260400","lng":"88.82390000"},
{"id":"282","district_id":"56","name":"Alamdanga ","bn_name":"আলমডাঙ্গা","lat":"23.76266700","lng":"88.94378100"},
{"id":"283","district_id":"57","name":"Abhaynagar ","bn_name":"অভয়নগর","lat":"23.02381800","lng":"89.37958300"},
{"id":"284","district_id":"57","name":"Keshabpur ","bn_name":"কেশবপুর","lat":"22.88018400","lng":"89.22770300"},
{"id":"285","district_id":"57","name":"Bagherpara ","bn_name":"বাঘের পাড়া","lat":"23.21425400","lng":"89.34166700"},
{"id":"286","district_id":"57","name":"Jessore Sadar ","bn_name":"যশোর সদর","lat":"23.16609700","lng":"89.22770300"},
{"id":"287","district_id":"57","name":"Chaugachha ","bn_name":"চৌগাছা","lat":"23.26032900","lng":"89.03704800"},
{"id":"288","district_id":"57","name":"Manirampur ","bn_name":"মনিরামপুর","lat":"23.02315300","lng":"89.22770300"},
{"id":"289","district_id":"57","name":"Jhikargachha ","bn_name":"ঝিকরগাছা","lat":"23.09990700","lng":"89.09910800"},
{"id":"290","district_id":"57","name":"Sharsha ","bn_name":"সারশা","lat":"23.06928100","lng":"88.96053600"},
{"id":"291","district_id":"58","name":"Jhenaidah Sadar ","bn_name":"ঝিনাইদহ সদর","lat":"23.49912400","lng":"89.15154800"},
{"id":"292","district_id":"58","name":"Maheshpur ","bn_name":"মহেশপুর","lat":"23.33034900","lng":"88.82630100"},
{"id":"293","district_id":"58","name":"Kaliganj ","bn_name":"কালীগঞ্জ","lat":"23.35625200","lng":"89.15154800"},
{"id":"294","district_id":"58","name":"Kotchandpur ","bn_name":"কোট চাঁদপুর","lat":"23.40752900","lng":"89.01195800"},
{"id":"295","district_id":"58","name":"Shailkupa ","bn_name":"শৈলকুপা","lat":"23.68408300","lng":"89.24196600"},
{"id":"296","district_id":"58","name":"Harinakunda ","bn_name":"হাড়িনাকুন্দা","lat":"23.64152800","lng":"89.07525000"},
{"id":"297","district_id":"59","name":"Terokhada ","bn_name":"তেরোখাদা","lat":"22.93532200","lng":"89.66751400"},
{"id":"298","district_id":"59","name":"Batiaghata ","bn_name":"বাটিয়াঘাটা","lat":"22.72636100","lng":"89.50256400"},
{"id":"299","district_id":"59","name":"Dacope ","bn_name":"ডাকপে","lat":"22.60123500","lng":"89.50728700"},
{"id":"300","district_id":"59","name":"Dumuria ","bn_name":"ডুমুরিয়া","lat":"22.85722500","lng":"89.43639100"},
{"id":"301","district_id":"59","name":"Dighalia ","bn_name":"দিঘলিয়া","lat":"22.88136100","lng":"89.53089000"},
{"id":"302","district_id":"59","name":"Koyra ","bn_name":"কয়ড়া","lat":"22.09408600","lng":"89.36063000"},
{"id":"303","district_id":"59","name":"Paikgachha ","bn_name":"পাইকগাছা","lat":"22.59309200","lng":"89.31676500"},
{"id":"304","district_id":"59","name":"Phultala ","bn_name":"ফুলতলা","lat":"22.94066400","lng":"89.44585100"},
{"id":"305","district_id":"59","name":"Rupsa ","bn_name":"রূপসা","lat":"22.82205100","lng":"89.63458000"},
{"id":"306","district_id":"60","name":"Kushtia Sadar","bn_name":"কুষ্টিয়া সদর","lat":"23.83191900","lng":"89.07525000"},
{"id":"307","district_id":"60","name":"Kumarkhali","bn_name":"কুমারখালি","lat":"23.85958100","lng":"89.23958900"},
{"id":"308","district_id":"60","name":"Daulatpur","bn_name":"দৌলতপুর","lat":"24.02068900","lng":"88.84550400"},
{"id":"309","district_id":"60","name":"Mirpur","bn_name":"মিরপুর","lat":"23.87903000","lng":"88.99881000"},
{"id":"310","district_id":"60","name":"Bheramara","bn_name":"ভেরামারা","lat":"24.02097500","lng":"88.99223400"},
{"id":"311","district_id":"60","name":"Khoksa","bn_name":"খোকসা","lat":"23.79737600","lng":"89.29422100"},
{"id":"312","district_id":"61","name":"Magura Sadar ","bn_name":"মাগুরা সদর","lat":"23.45271600","lng":"89.41746400"},
{"id":"313","district_id":"61","name":"Mohammadpur ","bn_name":"মোহাম্মাদপুর","lat":"23.40557800","lng":"89.56862700"},
{"id":"314","district_id":"61","name":"Shalikha ","bn_name":"শালিখা","lat":"23.35716200","lng":"89.34166700"},
{"id":"315","district_id":"61","name":"Sreepur ","bn_name":"শ্রীপুর","lat":"24.19965700","lng":"90.48091000"},
{"id":"316","district_id":"62","name":"Gangni ","bn_name":"গাংনী","lat":"23.82065200","lng":"88.74218300"},
{"id":"317","district_id":"62","name":"Mujib Nagar ","bn_name":"মুজিব নগর","lat":"23.64684600","lng":"88.59276100"},
{"id":"318","district_id":"62","name":"Meherpur Sadar ","bn_name":"মেহেরপুর সদর","lat":"23.77804600","lng":"88.65093900"},
{"id":"319","district_id":"63","name":"Narail Sadar","bn_name":"নড়াইল সদর","lat":"23.16570000","lng":"89.49900000"},
{"id":"320","district_id":"63","name":"Lohagara","bn_name":"লোহাগাড়া","lat":"23.16757900","lng":"89.64399200"},
{"id":"321","district_id":"63","name":"Kalia","bn_name":"কালিয়া","lat":"23.02462900","lng":"89.64399200"},
{"id":"322","district_id":"64","name":"Satkhira Sadar ","bn_name":"সাতক্ষীরা সদর","lat":"22.73616300","lng":"89.03704800"},
{"id":"323","district_id":"64","name":"Assasuni ","bn_name":"আসসাশুনি","lat":"22.54631900","lng":"89.18964300"},
{"id":"324","district_id":"64","name":"Debhata ","bn_name":"দেভাটা","lat":"22.58094600","lng":"88.98924500"},
{"id":"325","district_id":"64","name":"Tala ","bn_name":"তালা","lat":"22.76093300","lng":"89.20867700"},
{"id":"326","district_id":"64","name":"Kalaroa ","bn_name":"কলারোয়া","lat":"22.87915000","lng":"89.03704800"},
{"id":"327","district_id":"64","name":"Kaliganj ","bn_name":"কালীগঞ্জ","lat":"23.96447800","lng":"90.57307100"},
{"id":"328","district_id":"64","name":"Shyamnagar ","bn_name":"শ্যামনগর","lat":"21.95016800","lng":"89.17060000"},
{"id":"329","district_id":"18","name":"Adamdighi","bn_name":"আদমদিঘী","lat":"24.82992500","lng":"89.03704800"},
{"id":"330","district_id":"18","name":"Bogra Sadar","bn_name":"বগুড়া সদর","lat":"24.87904200","lng":"89.34166700"},
{"id":"331","district_id":"18","name":"Sherpur","bn_name":"শেরপুর","lat":"24.64192000","lng":"89.41746400"},
{"id":"332","district_id":"18","name":"Dhunat","bn_name":"ধুনট","lat":"24.67796900","lng":"89.54032800"},
{"id":"333","district_id":"18","name":"Dhupchanchia","bn_name":"দুপচাচিয়া","lat":"24.88120000","lng":"89.17774200"},
{"id":"334","district_id":"18","name":"Gabtali","bn_name":"গাবতলি","lat":"24.87949700","lng":"89.45530900"},
{"id":"335","district_id":"18","name":"Kahaloo","bn_name":"কাহালু","lat":"24.83121600","lng":"89.26572700"},
{"id":"336","district_id":"18","name":"Nandigram","bn_name":"নন্দিগ্রাম","lat":"24.68856800","lng":"89.22770300"},
{"id":"337","district_id":"18","name":"Sahajanpur","bn_name":"শাহজাহানপুর","lat":"24.76042700","lng":"89.36063000"},
{"id":"338","district_id":"18","name":"Sariakandi","bn_name":"সারিয়াকান্দি","lat":"24.88877300","lng":"89.57098400"},
{"id":"339","district_id":"18","name":"Shibganj","bn_name":"শিবগঞ্জ","lat":"25.00056800","lng":"89.32032300"},
{"id":"340","district_id":"18","name":"Sonatala","bn_name":"সোনাতলা","lat":"25.01018300","lng":"89.50256400"},
{"id":"341","district_id":"19","name":"Joypurhat S","bn_name":"জয়পুরহাট সদর","lat":"25.11470000","lng":"89.03700000"},
{"id":"342","district_id":"19","name":"Akkelpur","bn_name":"আক্কেলপুর","lat":"24.96924600","lng":"89.02032300"},
{"id":"343","district_id":"19","name":"Kalai","bn_name":"কালাই","lat":"25.08003500","lng":"89.19916100"},
{"id":"344","district_id":"19","name":"Khetlal","bn_name":"খেতলাল","lat":"25.03800900","lng":"89.10864800"},
{"id":"345","district_id":"19","name":"Panchbibi","bn_name":"পাঁচবিবি","lat":"25.20975300","lng":"89.07525000"},
{"id":"346","district_id":"20","name":"Naogaon Sadar ","bn_name":"নওগাঁ সদর","lat":"24.78139000","lng":"88.88388300"},
{"id":"347","district_id":"20","name":"Mohadevpur ","bn_name":"মহাদেবপুর","lat":"24.91979200","lng":"88.75180500"},
{"id":"348","district_id":"20","name":"Manda ","bn_name":"মান্দা","lat":"24.75659300","lng":"88.74940000"},
{"id":"349","district_id":"20","name":"Niamatpur ","bn_name":"নিয়ামতপুর","lat":"24.83362300","lng":"88.56981900"},
{"id":"350","district_id":"20","name":"Atrai ","bn_name":"আত্রাই","lat":"24.59247300","lng":"89.03704800"},
{"id":"351","district_id":"20","name":"Raninagar ","bn_name":"রাণীনগর","lat":"24.72848600","lng":"88.95575000"},
{"id":"352","district_id":"20","name":"Patnitala ","bn_name":"পত্নীতলা","lat":"25.06492200","lng":"88.73015300"},
{"id":"353","district_id":"20","name":"Dhamoirhat ","bn_name":"ধামইরহাট","lat":"25.15039600","lng":"88.85150300"},
{"id":"354","district_id":"20","name":"Sapahar ","bn_name":"সাপাহার","lat":"25.13411100","lng":"88.51785200"},
{"id":"355","district_id":"20","name":"Porsha ","bn_name":"পোরশা","lat":"25.01533300","lng":"88.49849900"},
{"id":"356","district_id":"20","name":"Badalgachhi ","bn_name":"বদলগাছি","lat":"24.96848500","lng":"88.91024900"},
{"id":"357","district_id":"21","name":"Natore Sadar ","bn_name":"নাটোর সদর","lat":"24.40215800","lng":"88.99881000"},
{"id":"358","district_id":"21","name":"Baraigram ","bn_name":"বড়াইগ্রাম","lat":"24.28413700","lng":"24.28413700"},
{"id":"359","district_id":"21","name":"Bagatipara ","bn_name":"বাগাতিপাড়া","lat":"24.30240200","lng":"88.96412600"},
{"id":"360","district_id":"21","name":"Lalpur ","bn_name":"লালপুর","lat":"24.21174600","lng":"88.96053600"},
{"id":"362","district_id":"21","name":"Baraigram ","bn_name":"বড়াই গ্রাম","lat":"24.28410000","lng":"89.13250000"},
{"id":"363","district_id":"22","name":"Bholahat ","bn_name":"ভোলাহাট","lat":"24.91699900","lng":"88.18766800"},
{"id":"364","district_id":"22","name":"Gomastapur ","bn_name":"গোমস্তাপুর","lat":"24.87176800","lng":"88.38219900"},
{"id":"365","district_id":"22","name":"Nachole ","bn_name":"নাচোল","lat":"24.73266000","lng":"88.41372800"},
{"id":"366","district_id":"22","name":"Nawabganj Sadar ","bn_name":"নবাবগঞ্জ সদর","lat":"24.58560100","lng":"88.26558400"},
{"id":"367","district_id":"22","name":"Shibganj ","bn_name":"শিবগঞ্জ","lat":"24.68374800","lng":"88.15719300"},
{"id":"368","district_id":"23","name":"Atgharia ","bn_name":"আটঘরিয়া","lat":"24.11821200","lng":"89.22770300"},
{"id":"369","district_id":"23","name":"Bera ","bn_name":"বেড়া","lat":"24.07656300","lng":"89.61457000"},
{"id":"370","district_id":"23","name":"Bhangura ","bn_name":"ভাঙ্গুরা","lat":"24.24979200","lng":"89.40799700"},
{"id":"371","district_id":"23","name":"Chatmohar ","bn_name":"চাটমোহর","lat":"24.21369000","lng":"89.30371500"},
{"id":"372","district_id":"23","name":"Faridpur ","bn_name":"ফরিদপুর","lat":"23.54239200","lng":"89.63089200"},
{"id":"373","district_id":"23","name":"Ishwardi ","bn_name":"ঈশ্বরদী","lat":"24.07003200","lng":"89.11341700"},
{"id":"374","district_id":"23","name":"Pabna Sadar ","bn_name":"পাবনা সদর","lat":"24.02326400","lng":"89.26572700"},
{"id":"375","district_id":"23","name":"Santhia ","bn_name":"সাথিয়া","lat":"24.07187100","lng":"89.53089000"},
{"id":"376","district_id":"23","name":"Sujanagar ","bn_name":"সুজানগর","lat":"23.94215300","lng":"89.42101400"},
{"id":"377","district_id":"24","name":"Bagha","bn_name":"বাঘা","lat":"24.21092200","lng":"88.84550400"},
{"id":"378","district_id":"24","name":"Bagmara","bn_name":"বাগমারা","lat":"24.59083600","lng":"88.80708900"},
{"id":"379","district_id":"24","name":"Charghat","bn_name":"চারঘাট","lat":"24.27853100","lng":"88.75180500"},
{"id":"380","district_id":"24","name":"Durgapur","bn_name":"দুর্গাপুর","lat":"24.44799300","lng":"88.76863800"},
{"id":"381","district_id":"24","name":"Godagari","bn_name":"গোদাগারি","lat":"24.46873800","lng":"88.44038800"},
{"id":"382","district_id":"24","name":"Mohanpur","bn_name":"মোহনপুর","lat":"24.54485800","lng":"88.63619600"},
{"id":"383","district_id":"24","name":"Paba","bn_name":"পবা","lat":"24.43504800","lng":"88.64343100"},
{"id":"384","district_id":"24","name":"Puthia","bn_name":"পুঠিয়া","lat":"24.40107200","lng":"88.84550400"},
{"id":"385","district_id":"24","name":"Tanore","bn_name":"তানোর","lat":"24.63596600","lng":"88.53719600"},
{"id":"386","district_id":"25","name":"Sirajganj Sadar ","bn_name":"সিরাজগঞ্জ সদর","lat":"24.50017000","lng":"89.68162100"},
{"id":"387","district_id":"25","name":"Belkuchi ","bn_name":"বেলকুচি","lat":"24.31011400","lng":"89.71921300"},
{"id":"388","district_id":"25","name":"Chauhali ","bn_name":"চৌহালি","lat":"24.07239400","lng":"89.75676900"},
{"id":"389","district_id":"25","name":"Kamarkhanda ","bn_name":"কামারখান্দা","lat":"24.39317100","lng":"89.65340300"},
{"id":"390","district_id":"25","name":"Kazipur ","bn_name":"কাজীপুর","lat":"24.69020800","lng":"89.68162100"},
{"id":"391","district_id":"25","name":"Raiganj ","bn_name":"রায়গঞ্জ","lat":"24.49977900","lng":"89.53089000"},
{"id":"392","district_id":"25","name":"Shahjadpur ","bn_name":"শাহজাদপুর","lat":"24.19094000","lng":"89.58748200"},
{"id":"393","district_id":"25","name":"Tarash ","bn_name":"তারাশ","lat":"24.43089100","lng":"89.37247700"},
{"id":"394","district_id":"25","name":"Ullahpara ","bn_name":"উল্লাপাড়া","lat":"24.35719200","lng":"89.53089000"},
{"id":"395","district_id":"26","name":"Birampur ","bn_name":"বিরামপুর","lat":"25.38994600","lng":"88.99163600"},
{"id":"396","district_id":"26","name":"Birganj","bn_name":"বীরগঞ্জ","lat":"25.89344800","lng":"88.67235800"},
{"id":"397","district_id":"26","name":"Biral ","bn_name":"বিড়াল","lat":"25.63186800","lng":"88.53719600"},
{"id":"398","district_id":"26","name":"Bochaganj ","bn_name":"বোচাগঞ্জ","lat":"25.79972200","lng":"88.46218900"},
{"id":"399","district_id":"26","name":"Chirirbandar ","bn_name":"চিরিরবন্দর","lat":"25.65033700","lng":"88.77705200"},
{"id":"400","district_id":"26","name":"Phulbari ","bn_name":"ফুলবাড়ি","lat":"25.44544400","lng":"88.88388300"},
{"id":"401","district_id":"26","name":"Ghoraghat ","bn_name":"ঘোড়াঘাট","lat":"25.30525000","lng":"89.18964300"},
{"id":"402","district_id":"26","name":"Hakimpur ","bn_name":"হাকিমপুর","lat":"25.29266900","lng":"89.06570300"},
{"id":"403","district_id":"26","name":"Kaharole ","bn_name":"কাহারোল","lat":"25.82157400","lng":"88.57585700"},
{"id":"404","district_id":"26","name":"Khansama ","bn_name":"খানসামা","lat":"25.87064000","lng":"88.76863800"},
{"id":"405","district_id":"26","name":"Dinajpur Sadar ","bn_name":"দিনাজপুর সদর","lat":"25.58562400","lng":"88.65307500"},
{"id":"406","district_id":"26","name":"Nawabganj","bn_name":"নবাবগঞ্জ","lat":"24.74131100","lng":"88.29120700"},
{"id":"407","district_id":"26","name":"Parbatipur ","bn_name":"পার্বতীপুর","lat":"25.65439000","lng":"88.91623900"},
{"id":"408","district_id":"27","name":"Fulchhari","bn_name":"ফুলছড়ি","lat":"25.25962400","lng":"89.64399200"},
{"id":"409","district_id":"27","name":"Gaibandha sadar","bn_name":"গাইবান্ধা সদর","lat":"25.35424300","lng":"89.56862700"},
{"id":"410","district_id":"27","name":"Gobindaganj","bn_name":"গোবিন্দগঞ্জ","lat":"25.14041800","lng":"89.43639100"},
{"id":"411","district_id":"27","name":"Palashbari","bn_name":"পলাশবাড়ী","lat":"25.27064700","lng":"89.38905700"},
{"id":"412","district_id":"27","name":"Sadullapur","bn_name":"সাদুল্যাপুর","lat":"25.39093900","lng":"89.46594600"},
{"id":"413","district_id":"27","name":"Saghata","bn_name":"সাঘাটা","lat":"25.12311100","lng":"89.58276900"},
{"id":"414","district_id":"27","name":"Sundarganj","bn_name":"সুন্দরগঞ্জ","lat":"25.56436200","lng":"89.51909000"},
{"id":"415","district_id":"28","name":"Kurigram Sadar","bn_name":"কুড়িগ্রাম সদর","lat":"25.81034600","lng":"89.64869800"},
{"id":"416","district_id":"28","name":"Nageshwari","bn_name":"নাগেশ্বরী","lat":"25.97024700","lng":"89.75676900"},
{"id":"417","district_id":"28","name":"Bhurungamari","bn_name":"ভুরুঙ্গামারি","lat":"26.11195800","lng":"89.68162100"},
{"id":"418","district_id":"28","name":"Phulbari","bn_name":"ফুলবাড়ি","lat":"25.44544400","lng":"88.88388300"},
{"id":"419","district_id":"28","name":"Rajarhat","bn_name":"রাজারহাট","lat":"25.78043500","lng":"89.53089000"},
{"id":"420","district_id":"28","name":"Ulipur","bn_name":"উলিপুর","lat":"25.65642000","lng":"89.62045600"},
{"id":"421","district_id":"28","name":"Chilmari","bn_name":"চিলমারি","lat":"25.58104100","lng":"89.66163500"},
{"id":"422","district_id":"28","name":"Rowmari","bn_name":"রউমারি","lat":"25.59169600","lng":"89.83177300"},
{"id":"423","district_id":"28","name":"Char Rajibpur","bn_name":"চর রাজিবপুর","lat":"25.46132400","lng":"89.76615300"},
{"id":"424","district_id":"29","name":"Lalmanirhat Sadar","bn_name":"লালমনিরহাট সদর","lat":"25.87481900","lng":"89.45530900"},
{"id":"425","district_id":"29","name":"Aditmari","bn_name":"আদিতমারি","lat":"25.92182600","lng":"89.37958300"},
{"id":"426","district_id":"29","name":"Kaliganj","bn_name":"কালীগঞ্জ","lat":"25.96859800","lng":"89.26572700"},
{"id":"427","district_id":"29","name":"Hatibandha","bn_name":"হাতিবান্ধা","lat":"26.14222200","lng":"89.13487000"},
{"id":"428","district_id":"29","name":"Patgram","bn_name":"পাটগ্রাম","lat":"26.35695100","lng":"89.00837300"},
{"id":"429","district_id":"30","name":"Nilphamari Sadar","bn_name":"নীলফামারী সদর","lat":"25.98936300","lng":"88.82630100"},
{"id":"430","district_id":"30","name":"Saidpur","bn_name":"সৈয়দপুর","lat":"25.78295400","lng":"88.89826700"},
{"id":"431","district_id":"30","name":"Jaldhaka","bn_name":"জলঢাকা","lat":"26.01966400","lng":"89.01659100"},
{"id":"432","district_id":"30","name":"Kishoreganj","bn_name":"কিশোরগঞ্জ","lat":"25.92021300","lng":"89.07525000"},
{"id":"433","district_id":"30","name":"Domar","bn_name":"ডোমার","lat":"26.15466200","lng":"88.80708900"},
{"id":"434","district_id":"30","name":"Dimla","bn_name":"ডিমলা","lat":"26.17961000","lng":"88.97967800"},
{"id":"435","district_id":"31","name":"Panchagarh Sadar","bn_name":"পঞ্চগড় সদর","lat":"26.38911000","lng":"88.61448400"},
{"id":"436","district_id":"31","name":"Debiganj","bn_name":"দেবীগঞ্জ","lat":"26.10674600","lng":"88.73015300"},
{"id":"437","district_id":"31","name":"Boda","bn_name":"বোদা","lat":"26.24744000","lng":"88.61448400"},
{"id":"438","district_id":"31","name":"Atwari","bn_name":"আটোয়ারি","lat":"26.24545400","lng":"88.42100100"},
{"id":"439","district_id":"31","name":"Tetulia","bn_name":"তেতুলিয়া","lat":"26.51700700","lng":"88.43069500"},
{"id":"440","district_id":"32","name":"Badarganj","bn_name":"বদরগঞ্জ","lat":"25.65396800","lng":"89.07047700"},
{"id":"441","district_id":"32","name":"Mithapukur","bn_name":"মিঠাপুকুর","lat":"25.61373300","lng":"89.28472500"},
{"id":"442","district_id":"32","name":"Gangachara","bn_name":"গঙ্গাচরা","lat":"25.87379200","lng":"89.22770300"},
{"id":"443","district_id":"32","name":"Kaunia","bn_name":"কাউনিয়া","lat":"25.77416600","lng":"89.43166000"},
{"id":"444","district_id":"32","name":"Rangpur Sadar","bn_name":"রংপুর সদর","lat":"25.73181400","lng":"89.22770300"},
{"id":"445","district_id":"32","name":"Pirgachha","bn_name":"পীরগাছা","lat":"25.68534900","lng":"89.41746400"},
{"id":"446","district_id":"32","name":"Pirganj","bn_name":"পীরগঞ্জ","lat":"25.43621800","lng":"89.31320600"},
{"id":"447","district_id":"32","name":"Taraganj","bn_name":"তারাগঞ্জ","lat":"25.77801800","lng":"89.03704800"},
{"id":"448","district_id":"33","name":"Thakurgaon Sadar ","bn_name":"ঠাকুরগাঁও সদর","lat":"26.08028700","lng":"88.44038800"},
{"id":"449","district_id":"33","name":"Pirganj ","bn_name":"পীরগঞ্জ","lat":"25.81912300","lng":"88.34336200"},
{"id":"450","district_id":"33","name":"Baliadangi ","bn_name":"বালিয়াডাঙ্গি","lat":"26.09023400","lng":"88.27531400"},
{"id":"451","district_id":"33","name":"Haripur ","bn_name":"হরিপুর","lat":"25.86409000","lng":"88.14865700"},
{"id":"452","district_id":"33","name":"Ranisankail ","bn_name":"রাণীসংকইল","lat":"25.89204600","lng":"88.25828600"},
{"id":"453","district_id":"51","name":"Ajmiriganj","bn_name":"আজমিরিগঞ্জ","lat":"24.54892200","lng":"91.23617100"},
{"id":"454","district_id":"51","name":"Baniachang","bn_name":"বানিয়াচং","lat":"24.50632200","lng":"91.35656900"},
{"id":"455","district_id":"51","name":"Bahubal","bn_name":"বাহুবল","lat":"24.34124800","lng":"91.53781100"},
{"id":"456","district_id":"51","name":"Chunarughat","bn_name":"চুনারুঘাট","lat":"24.18432900","lng":"91.48214800"},
{"id":"457","district_id":"51","name":"Habiganj Sadar","bn_name":"হবিগঞ্জ সদর","lat":"24.35126300","lng":"91.42414300"},
{"id":"458","district_id":"51","name":"Lakhai","bn_name":"লাক্ষাই","lat":"24.30509200","lng":"91.26984700"},
{"id":"459","district_id":"51","name":"Madhabpur","bn_name":"মাধবপুর","lat":"24.09982200","lng":"91.29632700"},
{"id":"460","district_id":"51","name":"Nabiganj","bn_name":"নবীগঞ্জ","lat":"24.56718800","lng":"91.51360100"},
{"id":"461","district_id":"51","name":"Shaistagonj ","bn_name":"শায়েস্তাগঞ্জ","lat":"24.27669700","lng":"91.45555300"},
{"id":"462","district_id":"52","name":"Moulvibazar Sadar","bn_name":"মৌলভীবাজার","lat":"24.46706400","lng":"91.71495800"},
{"id":"463","district_id":"52","name":"Barlekha","bn_name":"বড়লেখা","lat":"24.72192700","lng":"92.20399300"},
{"id":"464","district_id":"52","name":"Juri","bn_name":"জুড়ি","lat":"24.58006000","lng":"92.16467200"},
{"id":"465","district_id":"52","name":"Kamalganj","bn_name":"কামালগঞ্জ","lat":"24.27514800","lng":"91.87086100"},
{"id":"466","district_id":"52","name":"Kulaura","bn_name":"কুলাউরা","lat":"24.52546400","lng":"92.03466600"},
{"id":"467","district_id":"52","name":"Rajnagar","bn_name":"রাজনগর","lat":"24.56022900","lng":"91.87086100"},
{"id":"468","district_id":"52","name":"Sreemangal","bn_name":"শ্রীমঙ্গল","lat":"24.30096000","lng":"91.69550900"},
{"id":"469","district_id":"53","name":"Bishwamvarpur","bn_name":"বিসশম্ভারপুর","lat":"25.09875700","lng":"91.29993900"},
{"id":"470","district_id":"53","name":"Chhatak","bn_name":"ছাতক","lat":"25.03874700","lng":"91.66999600"},
{"id":"471","district_id":"53","name":"Derai","bn_name":"দেড়াই","lat":"24.75523300","lng":"91.40482500"},
{"id":"472","district_id":"53","name":"Dharampasha","bn_name":"ধরমপাশা","lat":"24.89932400","lng":"91.01195100"},
{"id":"473","district_id":"53","name":"Dowarabazar","bn_name":"দোয়ারাবাজার","lat":"25.10940300","lng":"91.57899900"},
{"id":"474","district_id":"53","name":"Jagannathpur","bn_name":"জগন্নাথপুর","lat":"24.75371000","lng":"91.55961200"},
{"id":"475","district_id":"53","name":"Jamalganj","bn_name":"জামালগঞ্জ","lat":"24.97066400","lng":"91.19291100"},
{"id":"476","district_id":"53","name":"Sulla","bn_name":"সুল্লা","lat":"24.67042300","lng":"91.26262900"},
{"id":"477","district_id":"53","name":"Sunamganj Sadar","bn_name":"সুনামগঞ্জ সদর","lat":"25.01645300","lng":"91.38551600"},
{"id":"478","district_id":"53","name":"Shanthiganj","bn_name":"শান্তিগঞ্জ","lat":null,"lng":null},
{"id":"479","district_id":"53","name":"Tahirpur","bn_name":"তাহিরপুর","lat":"25.09904900","lng":"91.17550000"},
{"id":"480","district_id":"54","name":"Sylhet Sadar","bn_name":"সিলেট সদর","lat":"24.96444700","lng":"91.81233200"},
{"id":"481","district_id":"54","name":"Beanibazar","bn_name":"বেয়ানিবাজার","lat":"24.82196100","lng":"92.15853100"},
{"id":"482","district_id":"54","name":"Bishwanath","bn_name":"বিশ্বনাথ","lat":"24.82300400","lng":"91.73441600"},
{"id":"483","district_id":"54","name":"Dakshin Surma ","bn_name":"দক্ষিণ সুরমা","lat":"24.82112300","lng":"91.89038800"},
{"id":"484","district_id":"54","name":"Balaganj","bn_name":"বালাগঞ্জ","lat":"24.68012800","lng":"91.77335700"},
{"id":"485","district_id":"54","name":"Companiganj","bn_name":"কোম্পানিগঞ্জ","lat":"25.08816700","lng":"91.75509900"},
{"id":"486","district_id":"54","name":"Fenchuganj","bn_name":"ফেঞ্চুগঞ্জ","lat":"24.68945000","lng":"91.97836700"},
{"id":"487","district_id":"54","name":"Golapganj","bn_name":"গোলাপগঞ্জ","lat":"24.85806300","lng":"92.01507600"},
{"id":"488","district_id":"54","name":"Gowainghat","bn_name":"গোয়াইনঘাট","lat":"25.10476700","lng":"91.96858300"},
{"id":"489","district_id":"54","name":"Jaintiapur","bn_name":"জয়ন্তপুর","lat":"25.13378300","lng":"92.12170400"},
{"id":"490","district_id":"54","name":"Kanaighat","bn_name":"কানাইঘাট","lat":"25.00882000","lng":"92.25565400"},
{"id":"491","district_id":"54","name":"Zakiganj","bn_name":"জাকিগঞ্জ","lat":"24.87812100","lng":"92.36778900"},
{"id":"492","district_id":"54","name":"Nobigonj","bn_name":"নবীগঞ্জ","lat":"24.56718800","lng":"91.51360100"},
{"id":"493","district_id":"1","name":"Adabor","bn_name":"আদাবর","lat":"23.76931390","lng":"90.35281430"},
{"id":"494","district_id":"1","name":"Airport,Biman Bandar","bn_name":"বিমান বন্দর","lat":"23.84661500","lng":"90.40043470"},
{"id":"495","district_id":"1","name":"Badda","bn_name":"বাড্ডা","lat":"23.78628420","lng":"90.41200260"},
{"id":"496","district_id":"1","name":"Banani","bn_name":"বনানী","lat":"23.79469760","lng":"90.39714120"},
{"id":"497","district_id":"1","name":"Bangshal","bn_name":"বাংশাল","lat":"23.71711420","lng":"90.39867280"},
{"id":"498","district_id":"1","name":"Bhashantek","bn_name":"ভাষানটেক","lat":"23.80881070","lng":"90.38950990"},
{"id":"499","district_id":"1","name":"Cantonment","bn_name":"ক্যান্টনমেন্ট","lat":"23.82558740","lng":"90.37818590"},
{"id":"500","district_id":"1","name":"Chackbazar","bn_name":"চকবাজার","lat":"23.71673880","lng":"90.39517260"},
{"id":"501","district_id":"1","name":"Darussalam","bn_name":"দারুস সালাম","lat":"23.77871520","lng":"90.35144180"},
{"id":"502","district_id":"1","name":"Daskhinkhan","bn_name":"দক্ষিণখান","lat":"23.85957220","lng":"90.42241820"},
{"id":"503","district_id":"1","name":"Demra","bn_name":"ডেমরা","lat":"23.72151260","lng":"90.46228390"},
{"id":"504","district_id":"1","name":"Dhamrai","bn_name":"ধামরাই","lat":"23.91748960","lng":"90.21373100"},
{"id":"505","district_id":"1","name":"Dhanmondi","bn_name":"ধানমন্ডি","lat":"23.74703040","lng":"90.36710720"},
{"id":"506","district_id":"1","name":"Dohar","bn_name":"দোহার","lat":"23.61786060","lng":"90.11718480"},
{"id":"507","district_id":"1","name":"Gandaria","bn_name":"গেন্ডারিয়া","lat":"23.70221790","lng":"90.42442790"},
{"id":"508","district_id":"1","name":"Gulshan","bn_name":"গুলশান","lat":"23.78970770","lng":"90.39292480"},
{"id":"509","district_id":"1","name":"Hazaribag","bn_name":"হাজারিবাগ","lat":"23.73499270","lng":"90.35273350"},
{"id":"510","district_id":"1","name":"Jatrabari","bn_name":"যাত্রাবাড়ি","lat":"23.71525100","lng":"90.41767600"},
{"id":"511","district_id":"1","name":"Kafrul","bn_name":"কাফরুল","lat":"23.79095690","lng":"90.37311660"},
{"id":"512","district_id":"1","name":"Kalabagan","bn_name":"কলাবাগান","lat":"23.74649420","lng":"90.37818360"},
{"id":"513","district_id":"1","name":"Kamrangirchar","bn_name":"কামরাঙ্গীরচর","lat":"23.72115030","lng":"90.36465140"},
{"id":"514","district_id":"1","name":"Keraniganj","bn_name":"কেরানীগঞ্জ","lat":"23.69437600","lng":"90.33755000"},
{"id":"515","district_id":"1","name":"Khilgaon","bn_name":"খিলগাঁও","lat":"23.74966510","lng":"90.41903140"},
{"id":"516","district_id":"1","name":"Khilkhet","bn_name":"খিলখেত","lat":"23.83132080","lng":"90.42202600"},
{"id":"517","district_id":"1","name":"Kotwali","bn_name":"কোতোয়ালী","lat":"23.70918460","lng":"90.40302250"},
{"id":"518","district_id":"1","name":"Lalbag","bn_name":"লালবাগ","lat":"23.71954110","lng":"90.38591000"},
{"id":"519","district_id":"1","name":"Mirpur Model","bn_name":"মিরপুর","lat":"23.80404070","lng":"90.35681720"},
{"id":"520","district_id":"1","name":"Mohammadpur","bn_name":"মোহাম্মদপুর","lat":"23.76457840","lng":"90.35101530"},
{"id":"521","district_id":"1","name":"Motijheel","bn_name":"মতিঝিল","lat":"23.73546740","lng":"90.40955250"},
{"id":"522","district_id":"1","name":"Mugda","bn_name":"মুগদা","lat":"23.73201230","lng":"90.42782840"},
{"id":"523","district_id":"1","name":"Nawabganj","bn_name":"নবাবগঞ্জ","lat":"23.65334870","lng":"90.14498950"},
{"id":"524","district_id":"1","name":"New Market","bn_name":"নিউ মার্কেট","lat":"23.73302950","lng":"90.38249530"},
{"id":"525","district_id":"1","name":"Pallabi","bn_name":"পল্লবি","lat":"23.83212490","lng":"90.34304360"},
{"id":"526","district_id":"1","name":"Paltan","bn_name":"পল্টন","lat":"23.73602630","lng":"90.41193770"},
{"id":"527","district_id":"1","name":"Ramna","bn_name":"রমনা","lat":"23.74294620","lng":"90.38466010"},
{"id":"528","district_id":"1","name":"Rampura","bn_name":"রামপুরা","lat":"23.76083430","lng":"90.41241360"},
{"id":"529","district_id":"1","name":"Rupnagar","bn_name":"রূপনগর","lat":"23.77685360","lng":"90.43508950"},
{"id":"530","district_id":"1","name":"Sabujbag","bn_name":"সবুজবাগ","lat":"23.77683380","lng":"90.40116420"},
{"id":"531","district_id":"1","name":"Savar","bn_name":"সাভার","lat":"23.88568910","lng":"90.13302750"},
{"id":"532","district_id":"1","name":"Shah Ali","bn_name":"শাহ আলী","lat":"23.80542750","lng":"90.34668630"},
{"id":"533","district_id":"1","name":"Shahbag","bn_name":"শাহবাগ","lat":"23.74033930","lng":"90.39191370"},
{"id":"534","district_id":"1","name":"Shahjahanpur","bn_name":"শাহজাহানপুর","lat":"23.73941850","lng":"90.42063120"},
{"id":"535","district_id":"1","name":"Sherebanglanagar","bn_name":"শেরে বাংলা নগর","lat":"23.77124020","lng":"90.36431360"},
{"id":"536","district_id":"1","name":"Shyampur","bn_name":"শ্যামপুর","lat":"23.68727090","lng":"90.42698620"},
{"id":"537","district_id":"1","name":"Sutrapur","bn_name":"সূত্রাপুর","lat":"23.71123950","lng":"90.41348270"},
{"id":"538","district_id":"1","name":"Tejgaon","bn_name":"তেজগাঁও","lat":"23.76369710","lng":"90.37069060"},
{"id":"539","district_id":"1","name":"Tejgaon I\/A","bn_name":"","lat":"23.76071200","lng":"90.39866970"},
{"id":"540","district_id":"1","name":"Turag","bn_name":"তুরাগ","lat":"23.89230080","lng":"90.35204040"},
{"id":"541","district_id":"1","name":"Uttara","bn_name":"উত্তরা","lat":"23.87663260","lng":"90.36077840"},
{"id":"542","district_id":"1","name":"Uttara West","bn_name":"উত্তরা (পূর্ব)","lat":"23.87194380","lng":"90.37447910"},
{"id":"543","district_id":"1","name":"Uttarkhan","bn_name":"উত্তরখান","lat":"23.87261090","lng":"90.42564990"},
{"id":"544","district_id":"1","name":"Vatara","bn_name":"ভাটারা","lat":"23.80486030","lng":"90.42322530"},
{"id":"545","district_id":"1","name":"Wari","bn_name":"ওয়ারী","lat":"23.71835410","lng":"90.41572300"},
{"id":"547","district_id":"35","name":"Airport","bn_name":"বিমান বন্দর","lat":"22.79873400","lng":"90.29983900"},
{"id":"548","district_id":"35","name":"Kawnia","bn_name":"কাউনিয়া থানা","lat":"22.71779300","lng":"90.35836100"},
{"id":"549","district_id":"35","name":"Bondor","bn_name":"বন্দর থানা","lat":"22.70221000","lng":"90.36963200"},
{"id":"551","district_id":"24","name":"Boalia","bn_name":"বোয়ালিয়া থানা","lat":"24.36948600","lng":"88.61931000"},
{"id":"552","district_id":"24","name":"Motihar","bn_name":"মতিহার থানা","lat":"24.36049100","lng":"88.62811200"},
{"id":"553","district_id":"24","name":"Shahmokhdum","bn_name":"শাহমখদুম থানা","lat":"24.39524500","lng":"88.64724100"},
{"id":"554","district_id":"24","name":"Rajpara","bn_name":"রাজপাড়া থানা","lat":"24.37350800","lng":"88.57223400"},
{"id":"556","district_id":"43","name":"Akborsha","bn_name":"আকবর শাহ","lat":null,"lng":null},
{"id":"557","district_id":"43","name":"Baijid bostami","bn_name":"বায়েজীদ বস্তামি থানা","lat":"22.38923300","lng":"91.80905700"},
{"id":"558","district_id":"43","name":"Bakolia","bn_name":"বাকলিয়া থানা","lat":"22.35583000","lng":"91.84486400"},
{"id":"559","district_id":"43","name":"Bandar","bn_name":"বান্দার","lat":"22.31041600","lng":"91.80136700"},
{"id":"560","district_id":"43","name":"Chandgaon","bn_name":"চান্দগাঁও থানা","lat":"22.39798000","lng":"91.85744600"},
{"id":"561","district_id":"43","name":"Chokbazar","bn_name":"চকবাজার থানা","lat":"22.35177400","lng":"91.83305300"},
{"id":"562","district_id":"43","name":"Doublemooring","bn_name":"ডবলমুরিং থানা","lat":"22.32971500","lng":"91.80745900"},
{"id":"563","district_id":"43","name":"EPZ","bn_name":"ইপিজেড থানা","lat":"22.28895100","lng":"91.77679400"},
{"id":"564","district_id":"43","name":"Hali Shohor","bn_name":"হালিশহর থানা","lat":"22.32172800","lng":"91.78667800"},
{"id":"565","district_id":"43","name":"Kornafuli","bn_name":"কর্ণফুলী","lat":"22.58188200","lng":"92.10685600"},
{"id":"566","district_id":"43","name":"Kotwali","bn_name":"কোতয়ালী থানা","lat":"22.34141500","lng":"91.82695700"},
{"id":"567","district_id":"43","name":"Khulshi","bn_name":"খুলশী থানা","lat":"22.35890000","lng":"91.81259000"},
{"id":"568","district_id":"43","name":"Pahartali","bn_name":"পাহাড়তলী থানা","lat":"22.36578800","lng":"91.77822700"},
{"id":"569","district_id":"43","name":"Panchlaish","bn_name":"পাঁচলাইশ থানা","lat":"22.36218700","lng":"91.83427200"},
{"id":"570","district_id":"43","name":"Potenga","bn_name":"পতেঙ্গা থানা","lat":"22.23520200","lng":"91.79139400"},
{"id":"571","district_id":"43","name":"Shodhorgat","bn_name":"সদরঘাট থানা","lat":"22.32981900","lng":"91.83115300"},
{"id":"574","district_id":"59","name":"Aranghata","bn_name":"আরংঘাটা","lat":null,"lng":null},
{"id":"575","district_id":"59","name":"Daulatpur","bn_name":"দৌলতপুর","lat":"22.86344500","lng":"89.51673000"},
{"id":"577","district_id":"59","name":"Horintana","bn_name":"হরিনটানা","lat":"22.79556400","lng":"89.52956200"},
{"id":"578","district_id":"59","name":"Khalishpur","bn_name":"খালিশপুর থানা","lat":"22.85813200","lng":"89.54607800"},
{"id":"579","district_id":"59","name":"Khanjahan Ali","bn_name":"খানজাহান আলী থানা","lat":"22.65846200","lng":"89.75855200"},
{"id":"582","district_id":"59","name":"Sonadanga","bn_name":"সোনাডাঙ্গা থানা","lat":"22.82478100","lng":"89.53796900"},
{"id":"587","district_id":"54","name":"Airport","bn_name":"বিমান বন্দর","lat":"24.95799500","lng":"91.87094600"},
{"id":"588","district_id":"54","name":"Hazrat Shah Paran","bn_name":"হযরত শাহপরান থানা","lat":"24.90507900","lng":"91.93557800"},
{"id":"589","district_id":"54","name":"Jalalabad","bn_name":"জালালাবাদ থানা","lat":"24.89492900","lng":"91.86870600"},
{"id":"590","district_id":"54","name":"Kowtali","bn_name":"কোতোয়ালী থানা","lat":"24.88891600","lng":"91.86537100"},
{"id":"591","district_id":"54","name":"Moglabazar","bn_name":"মোগলাবাজার থানা","lat":"24.85213400","lng":"91.89083900"},
{"id":"592","district_id":"54","name":"Osmani Nagar","bn_name":"ওসমানীনগর","lat":"24.71901900","lng":"91.74658100"},
{"id":"593","district_id":"54","name":"South Surma","bn_name":"দক্ষিণ সুরমা থানা","lat":"24.82112300","lng":"91.89038800"}
]
}
]
